[{"OBJECT_NAME":"CYGFM01","OBJECT_ID":"2016-078D","EPOCH":"2026-03-09T17:27:38.414880","MEAN_MOTION":15.52629701,"ECCENTRICITY":0.00068514,"INCLINATION":34.9401,"RA_OF_ASC_NODE":198.8185,"ARG_OF_PERICENTER":277.8179,"MEAN_ANOMALY":82.1766,"EPHEMERIS_TYPE":0,"CLASSIFICATION_TYPE":"U","NORAD_CAT_ID":41887,"ELEMENT_SET_NO":999,"REV_AT_EPOCH":51321,"BSTAR":0.00043964637,"MEAN_MOTION_DOT":0.00028005,"MEAN_MOTION_DDOT":0},{"OBJECT_NAME":"FLOCK 4Q-35","OBJECT_ID":"2023-174BF","EPOCH":"2026-03-09T21:44:34.605312","MEAN_MOTION":15.50220638,"ECCENTRICITY":0.00080298,"INCLINATION":97.3893,"RA_OF_ASC_NODE":157.9669,"ARG_OF_PERICENTER":147.4932,"MEAN_ANOMALY":212.6815,"EPHEMERIS_TYPE":0,"CLASSIFICATION_TYPE":"U","NORAD_CAT_ID":58309,"ELEMENT_SET_NO":999,"REV_AT_EPOCH":13039,"BSTAR":0.00066451051,"MEAN_MOTION_DOT":0.00037604,"MEAN_MOTION_DDOT":0}]
